ONEWEB-0311             
1 49097U 21075Y   25234.51475150  .00000053  00000+0  10344-3 0  9990
2 49097  87.9021  65.2836 0001968  99.1482 260.9873 13.17650229194291
ONEWEB-0312             
1 49098U 21075Z   25232.78340575  .00000086  00000+0  18897-3 0  9997
2 49098  87.9023  65.6615 0001620  99.7241 260.4073 13.17651839194045
ONEWEB-0313             
1 49099U 21075AA  25232.78834162  .00000001  00000+0 -31913-4 0  9991
2 49099  87.9016  65.6735 0001779  92.1301 268.0034 13.17648298194035
ONEWEB-0314             
1 49100U 21075AB  25234.50125336  .00000011  00000+0 -42042-5 0  9999
2 49100  87.9026  65.2666 0001705 101.3924 258.7400 13.17651068194235
ONEWEB-0315             
1 49101U 21075AC  25232.91118737 -.00000333  00000+0 -96068-3 0  9993
2 49101  87.8857  50.3200 0002085  97.6879 262.4486 13.12441876195780
ONEWEB-0316             
1 49102U 21075AD  25232.91554924  .00000000  00000+0 -31501-4 0  9998
2 49102  87.9147  35.1009 0001980  96.1823 263.9535 13.18687452197633
ONEWEB-0317             
1 49103U 21075AE  25232.90471205 -.00000335  00000+0 -96688-3 0  9996
2 49103  87.8859  50.3357 0001096  69.9328 290.1919 13.12442246195803
ONEWEB-0318             
1 49104U 21075AF  25232.91224446 -.00000219  00000+0 -58878-3 0  9991
2 49104  87.9148  35.0878 0001961  98.0364 262.0990 13.18685633197598
ONEWEB-0319             
1 49105U 21075AG  25234.51643775  .00000069  00000+0  14439-3 0  9996
2 49105  87.9023  65.3084 0002007 100.1524 259.9834 13.17647789194274
ONEWEB-0323             
1 49106U 21075AH  25232.89497513 -.00000223  00000+0 -65649-3 0  9996
2 49106  87.8859  50.3235 0002138 109.4415 250.6944 13.12442339195167
ONEWEB-0329             
1 49107U 21075AJ  25232.85429109  .00000015  00000+0  52474-5 0  9990
2 49107  87.9020  65.6449 0001800  96.2160 263.9177 13.17649088194035
ONEWEB-0330             
1 49108U 21075AK  25232.77920479  .00000063  00000+0  12880-3 0  9996
2 49108  87.9024  65.6628 0001552  92.6506 267.4803 13.17652110194065
ONEWEB-0292             
1 49186U 21083A   25232.79730158  .00000226  00000+0  58489-3 0  9992
2 49186  87.8998  19.9382 0001902  99.2739 260.8605 13.13468680191493
ONEWEB-0303             
1 49187U 21083B   25232.90895822 -.00000016  00000+0 -73956-4 0  9992
2 49187  87.9147  35.0891 0001927  97.3648 262.7703 13.18685623190403
ONEWEB-0306             
1 49188U 21083C   25232.89906089  .00000048  00000+0  87781-4 0  9993
2 49188  87.9146  35.0764 0001622  87.3375 272.7942 13.18686264190442
ONEWEB-0307             
1 49189U 21083D   25232.79137980  .00000312  00000+0  81953-3 0  9997
2 49189  87.8985  19.9397 0001438  96.0719 264.0574 13.13471350191494
ONEWEB-0320             
1 49190U 21083E   25232.90564043  .00000011  00000+0 -60414-5 0  9994
2 49190  87.9145  35.1037 0001794  94.0553 266.0785 13.18687227190408
