[{"OBJECT_NAME":"ONEWEB-0311","OBJECT_ID":"2021-075Y","EPOCH":"2025-08-22T12:21:14.529600","MEAN_MOTION":13.17650229,"ECCENTRICITY":0.00019686,"INCLINATION":87.9021,"RA_OF_ASC_NODE":65.2836,"ARG_OF_PERICENTER":99.1482,"MEAN_ANOMALY":260.9873,"EPHEMERIS_TYPE":0,"CLASSIFICATION_TYPE":"U","NORAD_CAT_ID":49097,"ELEMENT_SET_NO":999,"REV_AT_EPOCH":19429,"BSTAR":0.00010344478,"MEAN_MOTION_DOT":5.3e-7,"MEAN_MOTION_DDOT":0},{"OBJECT_NAME":"ONEWEB-0312","OBJECT_ID":"2021-075Z","EPOCH":"2025-08-20T18:48:06.256800","MEAN_MOTION":13.17651839,"ECCENTRICITY":0.000162,"INCLINATION":87.9023,"RA_OF_ASC_NODE":65.6615,"ARG_OF_PERICENTER":99.7241,"MEAN_ANOMALY":260.4073,"EPHEMERIS_TYPE":0,"CLASSIFICATION_TYPE":"U","NORAD_CAT_ID":49098,"ELEMENT_SET_NO":999,"REV_AT_EPOCH":19404,"BSTAR":0.00018897,"MEAN_MOTION_DOT":8.6e-7,"MEAN_MOTION_DDOT":0},{"OBJECT_NAME":"ONEWEB-0313","OBJECT_ID":"2021-075AA","EPOCH":"2025-08-20T18:55:12.715968","MEAN_MOTION":13.17648298,"ECCENTRICITY":0.0001779,"INCLINATION":87.9016,"RA_OF_ASC_NODE":65.6735,"ARG_OF_PERICENTER":92.1301,"MEAN_ANOMALY":268.0034,"EPHEMERIS_TYPE":0,"CLASSIFICATION_TYPE":"U","NORAD_CAT_ID":49099,"ELEMENT_SET_NO":999,"REV_AT_EPOCH":19403,"BSTAR":-3.1913e-5,"MEAN_MOTION_DOT":1.0e-8,"MEAN_MOTION_DDOT":0},{"OBJECT_NAME":"ONEWEB-0314","OBJECT_ID":"2021-075AB","EPOCH":"2025-08-22T12:01:48.290304","MEAN_MOTION":13.17651068,"ECCENTRICITY":0.00017056,"INCLINATION":87.9026,"RA_OF_ASC_NODE":65.2666,"ARG_OF_PERICENTER":101.3924,"MEAN_ANOMALY":258.74,"EPHEMERIS_TYPE":0,"CLASSIFICATION_TYPE":"U","NORAD_CAT_ID":49100,"ELEMENT_SET_NO":999,"REV_AT_EPOCH":19423,"BSTAR":-4.20419e-6,"MEAN_MOTION_DOT":1.1e-7,"MEAN_MOTION_DDOT":0},{"OBJECT_NAME":"ONEWEB-0315","OBJECT_ID":"2021-075AC","EPOCH":"2025-08-20T21:52:06.588768","MEAN_MOTION":13.12441876,"ECCENTRICITY":0.0002085,"INCLINATION":87.8857,"RA_OF_ASC_NODE":50.32,"ARG_OF_PERICENTER":97.6879,"MEAN_ANOMALY":262.4486,"EPHEMERIS_TYPE":0,"CLASSIFICATION_TYPE":"U","NORAD_CAT_ID":49101,"ELEMENT_SET_NO":999,"REV_AT_EPOCH":19578,"BSTAR":-0.00096068,"MEAN_MOTION_DOT":-3.33e-6,"MEAN_MOTION_DDOT":0},{"OBJECT_NAME":"ONEWEB-0316","OBJECT_ID":"2021-075AD","EPOCH":"2025-08-20T21:58:23.454336","MEAN_MOTION":13.18687452,"ECCENTRICITY":0.000198,"INCLINATION":87.9147,"RA_OF_ASC_NODE":35.1009,"ARG_OF_PERICENTER":96.1823,"MEAN_ANOMALY":263.9535,"EPHEMERIS_TYPE":0,"CLASSIFICATION_TYPE":"U","NORAD_CAT_ID":49102,"ELEMENT_SET_NO":999,"REV_AT_EPOCH":19763,"BSTAR":-3.1501e-5,"MEAN_MOTION_DOT":0,"MEAN_MOTION_DDOT":0},{"OBJECT_NAME":"ONEWEB-0317","OBJECT_ID":"2021-075AE","EPOCH":"2025-08-20T21:42:47.121120","MEAN_MOTION":13.12442246,"ECCENTRICITY":0.0001096,"INCLINATION":87.8859,"RA_OF_ASC_NODE":50.3357,"ARG_OF_PERICENTER":69.9328,"MEAN_ANOMALY":290.1919,"EPHEMERIS_TYPE":0,"CLASSIFICATION_TYPE":"U","NORAD_CAT_ID":49103,"ELEMENT_SET_NO":999,"REV_AT_EPOCH":19580,"BSTAR":-0.00096688,"MEAN_MOTION_DOT":-3.35e-6,"MEAN_MOTION_DDOT":0},{"OBJECT_NAME":"ONEWEB-0318","OBJECT_ID":"2021-075AF","EPOCH":"2025-08-20T21:53:37.921344","MEAN_MOTION":13.18685633,"ECCENTRICITY":0.0001961,"INCLINATION":87.9148,"RA_OF_ASC_NODE":35.0878,"ARG_OF_PERICENTER":98.0364,"MEAN_ANOMALY":262.099,"EPHEMERIS_TYPE":0,"CLASSIFICATION_TYPE":"U","NORAD_CAT_ID":49104,"ELEMENT_SET_NO":999,"REV_AT_EPOCH":19759,"BSTAR":-0.00058878,"MEAN_MOTION_DOT":-2.19e-6,"MEAN_MOTION_DDOT":0},{"OBJECT_NAME":"ONEWEB-0319","OBJECT_ID":"2021-075AG","EPOCH":"2025-08-22T12:23:40.221600","MEAN_MOTION":13.17647789,"ECCENTRICITY":0.00020074,"INCLINATION":87.9023,"RA_OF_ASC_NODE":65.3084,"ARG_OF_PERICENTER":100.1524,"MEAN_ANOMALY":259.9834,"EPHEMERIS_TYPE":0,"CLASSIFICATION_TYPE":"U","NORAD_CAT_ID":49105,"ELEMENT_SET_NO":999,"REV_AT_EPOCH":19427,"BSTAR":0.00014438516,"MEAN_MOTION_DOT":6.9e-7,"MEAN_MOTION_DDOT":0},{"OBJECT_NAME":"ONEWEB-0323","OBJECT_ID":"2021-075AH","EPOCH":"2025-08-20T21:28:45.851232","MEAN_MOTION":13.12442339,"ECCENTRICITY":0.0002138,"INCLINATION":87.8859,"RA_OF_ASC_NODE":50.3235,"ARG_OF_PERICENTER":109.4415,"MEAN_ANOMALY":250.6944,"EPHEMERIS_TYPE":0,"CLASSIFICATION_TYPE":"U","NORAD_CAT_ID":49106,"ELEMENT_SET_NO":999,"REV_AT_EPOCH":19516,"BSTAR":-0.00065649,"MEAN_MOTION_DOT":-2.23e-6,"MEAN_MOTION_DDOT":0},{"OBJECT_NAME":"ONEWEB-0329","OBJECT_ID":"2021-075AJ","EPOCH":"2025-08-20T20:30:10.750176","MEAN_MOTION":13.17649088,"ECCENTRICITY":0.00018,"INCLINATION":87.902,"RA_OF_ASC_NODE":65.6449,"ARG_OF_PERICENTER":96.216,"MEAN_ANOMALY":263.9177,"EPHEMERIS_TYPE":0,"CLASSIFICATION_TYPE":"U","NORAD_CAT_ID":49107,"ELEMENT_SET_NO":999,"REV_AT_EPOCH":19403,"BSTAR":5.2474e-6,"MEAN_MOTION_DOT":1.5e-7,"MEAN_MOTION_DDOT":0},{"OBJECT_NAME":"ONEWEB-0330","OBJECT_ID":"2021-075AK","EPOCH":"2025-08-20T18:42:03.293856","MEAN_MOTION":13.1765211,"ECCENTRICITY":0.0001552,"INCLINATION":87.9024,"RA_OF_ASC_NODE":65.6628,"ARG_OF_PERICENTER":92.6506,"MEAN_ANOMALY":267.4803,"EPHEMERIS_TYPE":0,"CLASSIFICATION_TYPE":"U","NORAD_CAT_ID":49108,"ELEMENT_SET_NO":999,"REV_AT_EPOCH":19406,"BSTAR":0.0001288,"MEAN_MOTION_DOT":6.3e-7,"MEAN_MOTION_DDOT":0},{"OBJECT_NAME":"ONEWEB-0292","OBJECT_ID":"2021-083A","EPOCH":"2025-08-20T19:08:06.856512","MEAN_MOTION":13.1346868,"ECCENTRICITY":0.0001902,"INCLINATION":87.8998,"RA_OF_ASC_NODE":19.9382,"ARG_OF_PERICENTER":99.2739,"MEAN_ANOMALY":260.8605,"EPHEMERIS_TYPE":0,"CLASSIFICATION_TYPE":"U","NORAD_CAT_ID":49186,"ELEMENT_SET_NO":999,"REV_AT_EPOCH":19149,"BSTAR":0.00058489,"MEAN_MOTION_DOT":2.26e-6,"MEAN_MOTION_DDOT":0},{"OBJECT_NAME":"ONEWEB-0303","OBJECT_ID":"2021-083B","EPOCH":"2025-08-20T21:48:53.990208","MEAN_MOTION":13.18685623,"ECCENTRICITY":0.0001927,"INCLINATION":87.9147,"RA_OF_ASC_NODE":35.0891,"ARG_OF_PERICENTER":97.3648,"MEAN_ANOMALY":262.7703,"EPHEMERIS_TYPE":0,"CLASSIFICATION_TYPE":"U","NORAD_CAT_ID":49187,"ELEMENT_SET_NO":999,"REV_AT_EPOCH":19040,"BSTAR":-7.3956e-5,"MEAN_MOTION_DOT":-1.6e-7,"MEAN_MOTION_DDOT":0},{"OBJECT_NAME":"ONEWEB-0306","OBJECT_ID":"2021-083C","EPOCH":"2025-08-20T21:34:38.860896","MEAN_MOTION":13.18686264,"ECCENTRICITY":0.0001622,"INCLINATION":87.9146,"RA_OF_ASC_NODE":35.0764,"ARG_OF_PERICENTER":87.3375,"MEAN_ANOMALY":272.7942,"EPHEMERIS_TYPE":0,"CLASSIFICATION_TYPE":"U","NORAD_CAT_ID":49188,"ELEMENT_SET_NO":999,"REV_AT_EPOCH":19044,"BSTAR":8.7781e-5,"MEAN_MOTION_DOT":4.8e-7,"MEAN_MOTION_DDOT":0},{"OBJECT_NAME":"ONEWEB-0307","OBJECT_ID":"2021-083D","EPOCH":"2025-08-20T18:59:35.214720","MEAN_MOTION":13.1347135,"ECCENTRICITY":0.0001438,"INCLINATION":87.8985,"RA_OF_ASC_NODE":19.9397,"ARG_OF_PERICENTER":96.0719,"MEAN_ANOMALY":264.0574,"EPHEMERIS_TYPE":0,"CLASSIFICATION_TYPE":"U","NORAD_CAT_ID":49189,"ELEMENT_SET_NO":999,"REV_AT_EPOCH":19149,"BSTAR":0.00081953,"MEAN_MOTION_DOT":3.12e-6,"MEAN_MOTION_DDOT":0},{"OBJECT_NAME":"ONEWEB-0320","OBJECT_ID":"2021-083E","EPOCH":"2025-08-20T21:44:07.333152","MEAN_MOTION":13.18687227,"ECCENTRICITY":0.0001794,"INCLINATION":87.9145,"RA_OF_ASC_NODE":35.1037,"ARG_OF_PERICENTER":94.0553,"MEAN_ANOMALY":266.0785,"EPHEMERIS_TYPE":0,"CLASSIFICATION_TYPE":"U","NORAD_CAT_ID":49190,"ELEMENT_SET_NO":999,"REV_AT_EPOCH":19040,"BSTAR":-6.0414e-6,"MEAN_MOTION_DOT":1.1e-7,"MEAN_MOTION_DDOT":0}]
